OBJECT_NAME,OBJECT_ID,EPOCH,MEAN_MOTION,ECCENTRICITY,INCLINATION,RA_OF_ASC_NODE,ARG_OF_PERICENTER,MEAN_ANOMALY,EPHEMERIS_TYPE,CLASSIFICATION_TYPE,NORAD_CAT_ID,ELEMENT_SET_NO,REV_AT_EPOCH,BSTAR,MEAN_MOTION_DOT,MEAN_MOTION_DDOT
STARLINK-37955,2026-145Z,2026-07-08T03:50:01.562784,15.75209901,.0001213,97.2855,35.7206,98.3320,261.8083,0,U,69700,999,207,.69279E-3,.104567E-2,0
STRIX-8,2026-146A,2026-07-08T02:45:43.273152,15.04393839,.0008351,41.9897,52.3127,336.3674,23.6769,0,U,69701,999,171,.21157E-3,.2816E-4,0
ELECTRON R/B,2026-146B,2026-07-07T23:45:12.420576,15.69380593,.0189029,42.0795,46.8602,329.6787,29.3238,0,U,69702,999,177,.80058E-3,.286169E-2,.3118E-4
ELECTRON KICK STAGE R/B,2026-146C,2026-07-08T01:04:30.300960,15.04905643,.0010126,41.9881,52.6479,336.8527,23.1843,0,U,69703,999,170,.17126E-3,.2275E-4,0
STARLINK-38055,2026-147A,2026-07-08T02:00:03.000384,15.80859742,.0001402,97.2845,225.0590,73.6661,308.5040,0,U,69704,999,260,-.11193E-3,-.21571E-3,0
STARLINK-37898,2026-147B,2026-07-08T02:00:03.000384,15.80863764,.0001203,97.2843,225.0612,70.3955,316.4603,0,U,69705,999,260,-.14132E-3,-.27187E-3,0
STARLINK-37970,2026-147C,2026-07-08T02:00:03.000384,15.80864647,.0001581,97.2844,225.0628,90.3587,300.7678,0,U,69706,999,260,-.10396E-3,-.20054E-3,0
STARLINK-37975,2026-147D,2026-07-08T02:00:03.000384,15.80863643,.0001046,97.2843,225.0650,68.0162,327.3854,0,U,69707,999,260,-.11557E-3,-.2227E-3,0
STARLINK-37972,2026-147E,2026-07-08T02:00:03.000384,15.80857599,.0000769,97.2843,225.0669,69.1104,330.5640,0,U,69708,999,260,-.68852E-4,-.13334E-3,0
STARLINK-37963,2026-147F,2026-07-08T02:00:03.000384,15.80863395,.000149,97.2842,225.0683,79.0996,324.8495,0,U,69709,999,260,-.15071E-3,-.28978E-3,0
STARLINK-37969,2026-147G,2026-07-08T02:00:03.000384,15.80858323,.0001368,97.2841,225.0703,90.7435,317.4838,0,U,69710,999,275,-.1673E-3,-.32132E-3,0
STARLINK-37956,2026-147H,2026-07-08T04:00:01.998720,15.80897094,.0001119,97.2842,225.1593,85.6959,80.6540,0,U,69711,999,261,-.70025E-3,-.132743E-2,0
STARLINK-38043,2026-147J,2026-07-08T02:00:03.000384,15.80889114,.000157,97.2843,225.0737,82.3739,334.3812,0,U,69712,999,260,-.31243E-3,-.59781E-3,0
STARLINK-38020,2026-147K,2026-07-08T02:00:03.000384,15.80862599,.0001664,97.2842,225.0759,65.8938,355.1497,0,U,69713,999,260,-.73343E-4,-.14198E-3,0
STARLINK-38059,2026-147L,2026-07-08T02:00:03.000384,15.80859083,.0001445,97.2842,225.0781,84.1035,341.2164,0,U,69714,999,260,-.11495E-3,-.22148E-3,0
STARLINK-38061,2026-147M,2026-07-08T04:00:01.998720,15.80889534,.0001556,97.2840,225.1678,83.0597,100.4900,0,U,69715,999,270,-.10389E-2,-.19543E-2,0
STARLINK-38060,2026-147N,2026-07-08T02:00:03.000384,15.80858779,.000109,97.2839,225.0817,106.1330,327.7394,0,U,69716,999,269,-.14469E-3,-.27821E-3,0
STARLINK-38040,2026-147P,2026-07-08T02:00:03.000384,15.80865166,.0001333,97.2839,225.0837,109.8882,328.2513,0,U,69717,999,269,-.17164E-3,-.32969E-3,0
STARLINK-37989,2026-147Q,2026-07-08T02:00:03.000384,15.80867788,.000103,97.2840,225.0852,90.4506,351.9679,0,U,69718,999,269,-.22227E-3,-.42609E-3,0
STARLINK-38039,2026-147R,2026-07-08T02:00:03.000384,15.80852142,.0000623,97.2838,225.0864,79.5524,7.1399,0,U,69719,999,269,-.37838E-4,-.7395E-4,0
STARLINK-38003,2026-147S,2026-07-08T02:00:03.000384,15.80865122,.0001119,97.2837,225.0881,84.3267,6.6366,0,U,69720,999,269,-.23289E-3,-.44622E-3,0
STARLINK-38014,2026-147T,2026-07-08T02:00:03.000384,15.80873396,.0001468,97.2837,225.0903,96.5500,358.6834,0,U,69721,999,269,-.26516E-3,-.50772E-3,0
STARLINK-37915,2026-147U,2026-07-08T02:00:03.000384,15.80851802,.0001031,97.2839,225.0920,82.7048,16.8134,0,U,69722,999,269,-.11477E-3,-.22105E-3,0
STARLINK-38007,2026-147V,2026-07-08T02:00:03.000384,15.80868478,.000128,97.2837,225.0859,88.5959,357.3073,0,U,69723,999,269,-.24689E-3,-.4729E-3,0
STARLINK-38008,2026-147W,2026-07-08T02:00:03.000384,15.80865992,.0001523,97.2837,225.0964,82.4285,25.6322,0,U,69724,999,269,-.20342E-3,-.39023E-3,0
STARLINK-38021,2026-147X,2026-07-08T02:00:03.000384,15.80865655,.0000871,97.2837,225.0978,77.7786,34.5580,0,U,69725,999,269,-.15254E-3,-.29328E-3,0
STARLINK-38015,2026-147Y,2026-07-08T02:00:03.000384,15.80892758,.0001286,97.2841,225.0997,72.8614,43.7157,0,U,69726,999,269,-.17902E-3,-.34418E-3,0
STARLINK-38010,2026-147Z,2026-07-08T02:00:03.000384,15.80255155,.0001792,97.2841,225.0999,72.7589,47.9734,0,U,69727,999,269,-.11923E-1,-.1939615E-1,0
SXM-11,2026-148A,2026-07-07T07:37:50.345184,1.49075246,.3010005,5.0002,143.5985,179.9268,179.9611,0,U,69728,999,24,0,-.69E-6,0
HAIYANG-2E,2026-149A,2026-07-07T16:28:26.550624,13.79755745,.0005429,99.3473,195.7143,202.0099,158.0821,0,U,69737,999,79,-.55876E+0,-.549914E-2,0
