STARLINK-37955          
1 69700U 26145Z   26189.15974031  .00104567  00000+0  69279-3 0  9994
2 69700  97.2855  35.7206 0001213  98.3320 261.8083 15.75209901  2071
STRIX-8                 
1 69701U 26146A   26189.11508418  .00002816  00000+0  21157-3 0  9991
2 69701  41.9897  52.3127 0008351 336.3674  23.6769 15.04393839  1719
ELECTRON R/B            
1 69702U 26146B   26188.98972709  .00286169  31180-4  80058-3 0  9992
2 69702  42.0795  46.8602 0189029 329.6787  29.3238 15.69380593  1771
ELECTRON KICK STAGE R/B 
1 69703U 26146C   26189.04479515  .00002275  00000+0  17126-3 0  9990
2 69703  41.9881  52.6479 0010126 336.8527  23.1843 15.04905643  1701
STARLINK-38055          
1 69704U 26147A   26189.08336806 -.00021571  00000+0 -11193-3 0  9991
2 69704  97.2845 225.0590 0001402  73.6661 308.5040 15.80859742  2609
STARLINK-37898          
1 69705U 26147B   26189.08336806 -.00027187  00000+0 -14132-3 0  9997
2 69705  97.2843 225.0612 0001203  70.3955 316.4603 15.80863764  2604
STARLINK-37970          
1 69706U 26147C   26189.08336806 -.00020054  00000+0 -10396-3 0  9992
2 69706  97.2844 225.0628 0001581  90.3587 300.7678 15.80864647  2604
STARLINK-37975          
1 69707U 26147D   26189.08336806 -.00022270  00000+0 -11557-3 0  9995
2 69707  97.2843 225.0650 0001046  68.0162 327.3854 15.80863643  2602
STARLINK-37972          
1 69708U 26147E   26189.08336806 -.00013334  00000+0 -68852-4 0  9998
2 69708  97.2843 225.0669 0000769  69.1104 330.5640 15.80857599  2604
STARLINK-37963          
1 69709U 26147F   26189.08336806 -.00028978  00000+0 -15071-3 0  9993
2 69709  97.2842 225.0683 0001490  79.0996 324.8495 15.80863395  2606
STARLINK-37969          
1 69710U 26147G   26189.08336806 -.00032132  00000+0 -16730-3 0  9995
2 69710  97.2841 225.0703 0001368  90.7435 317.4838 15.80858323  2752
STARLINK-37956          
1 69711U 26147H   26189.16668980 -.00132743  00000+0 -70025-3 0  9992
2 69711  97.2842 225.1593 0001119  85.6959  80.6540 15.80897094  2612
STARLINK-38043          
1 69712U 26147J   26189.08336806 -.00059781  00000+0 -31243-3 0  9992
2 69712  97.2843 225.0737 0001570  82.3739 334.3812 15.80889114  2608
STARLINK-38020          
1 69713U 26147K   26189.08336806 -.00014198  00000+0 -73343-4 0  9994
2 69713  97.2842 225.0759 0001664  65.8938 355.1497 15.80862599  2601
STARLINK-38059          
1 69714U 26147L   26189.08336806 -.00022148  00000+0 -11495-3 0  9998
2 69714  97.2842 225.0781 0001445  84.1035 341.2164 15.80859083  2607
STARLINK-38061          
1 69715U 26147M   26189.16668980 -.00195430  00000+0 -10389-2 0  9994
2 69715  97.2840 225.1678 0001556  83.0597 100.4900 15.80889534  2704
STARLINK-38060          
1 69716U 26147N   26189.08336806 -.00027821  00000+0 -14469-3 0  9997
2 69716  97.2839 225.0817 0001090 106.1330 327.7394 15.80858779  2698
STARLINK-38040          
1 69717U 26147P   26189.08336806 -.00032969  00000+0 -17164-3 0  9992
2 69717  97.2839 225.0837 0001333 109.8882 328.2513 15.80865166  2690
STARLINK-37989          
1 69718U 26147Q   26189.08336806 -.00042609  00000+0 -22227-3 0  9991
2 69718  97.2840 225.0852 0001030  90.4506 351.9679 15.80867788  2690
STARLINK-38039          
1 69719U 26147R   26189.08336806 -.00007395  00000+0 -37838-4 0  9990
2 69719  97.2838 225.0864 0000623  79.5524   7.1399 15.80852142  2693
STARLINK-38003          
1 69720U 26147S   26189.08336806 -.00044622  00000+0 -23289-3 0  9990
2 69720  97.2837 225.0881 0001119  84.3267   6.6366 15.80865122  2692
STARLINK-38014          
1 69721U 26147T   26189.08336806 -.00050772  00000+0 -26516-3 0  9990
2 69721  97.2837 225.0903 0001468  96.5500 358.6834 15.80873396  2692
STARLINK-37915          
1 69722U 26147U   26189.08336806 -.00022105  00000+0 -11477-3 0  9990
2 69722  97.2839 225.0920 0001031  82.7048  16.8134 15.80851802  2698
STARLINK-38007          
1 69723U 26147V   26189.08336806 -.00047290  00000+0 -24689-3 0  9992
2 69723  97.2837 225.0859 0001280  88.5959 357.3073 15.80868478  2691
STARLINK-38008          
1 69724U 26147W   26189.08336806 -.00039023  00000+0 -20342-3 0  9990
2 69724  97.2837 225.0964 0001523  82.4285  25.6322 15.80865992  2694
STARLINK-38021          
1 69725U 26147X   26189.08336806 -.00029328  00000+0 -15254-3 0  9994
2 69725  97.2837 225.0978 0000871  77.7786  34.5580 15.80865655  2699
STARLINK-38015          
1 69726U 26147Y   26189.08336806 -.00034418  00000+0 -17902-3 0  9993
2 69726  97.2841 225.0997 0001286  72.8614  43.7157 15.80892758  2699
STARLINK-38010          
1 69727U 26147Z   26189.08336806 -.01939615  00000+0 -11923-1 0  9993
2 69727  97.2841 225.0999 0001792  72.7589  47.9734 15.80255155  2695
SXM-11                  
1 69728U 26148A   26188.31794381 -.00000069  00000+0  00000+0 0  9998
2 69728   5.0002 143.5985 3010005 179.9268 179.9611  1.49075246   245
HAIYANG-2E              
1 69737U 26149A   26188.68641841 -.00549914  00000+0 -55876+0 0  9990
2 69737  99.3473 195.7143 0005429 202.0099 158.0821 13.79755745   795
